{"type":"FeatureCollection","features":[{"type":"Feature","properties":{"Name":"Altnagelvin Area Hospital","Location":"Derry","Trust":"Western","Hospital Type":"Acute","Emergency Dept":"Yes","Minor Injuries":"No","Postcode":"BT47 6SB"},"geometry":{"type":"Point","coordinates":[-7.292013,54.98681]}},{"type":"Feature","properties":{"Name":"Antrim Area Hospital","Location":"Antrim","Trust":"Northern","Hospital Type":"Acute","Emergency Dept":"Yes","Minor Injuries":"Yes","Postcode":"BT41 2RL"},"geometry":{"type":"Point","coordinates":[-6.185873,54.73297]}},{"type":"Feature","properties":{"Name":"Ards Community","Location":"Newtownards","Trust":"South Eastern","Hospital Type":"Non-acute","Emergency Dept":"No","Minor Injuries":"Yes","Postcode":"BT23 4AS"},"geometry":{"type":"Point","coordinates":[-5.707685,54.596107]}},{"type":"Feature","properties":{"Name":"Armagh Community Hospital","Location":"Armagh","Trust":"Southern","Hospital Type":"Non-acute","Emergency Dept":"No","Minor Injuries":"No","Postcode":"BT61 9DR"},"geometry":{"type":"Point","coordinates":[-6.643983,54.351115]}},{"type":"Feature","properties":{"Name":"Bangor Community Hospital","Location":"Bangor","Trust":"South Eastern","Hospital Type":"Non-acute","Emergency Dept":"No","Minor Injuries":"Yes","Postcode":"BT20 4TA"},"geometry":{"type":"Point","coordinates":[-5.66237,54.658285]}},{"type":"Feature","properties":{"Name":"Belfast City Hospital","Location":"Belfast","Trust":"Belfast","Hospital Type":"Acute","Emergency Dept":"No","Minor Injuries":"No","Postcode":"BT9 7AB"},"geometry":{"type":"Point","coordinates":[-5.958083,54.592623]}},{"type":"Feature","properties":{"Name":"Braid Valley Hospital","Location":"Ballymena","Trust":"Northern","Hospital Type":"Non-acute","Emergency Dept":"No","Minor Injuries":"No","Postcode":"BT43 6HL"},"geometry":{"type":"Point","coordinates":[-6.272192,54.87479]}},{"type":"Feature","properties":{"Name":"Causeway Hospital","Location":"Coleraine","Trust":"Northern","Hospital Type":"Acute","Emergency Dept":"Yes","Minor Injuries":"No","Postcode":"BT52 1HS"},"geometry":{"type":"Point","coordinates":[-6.653788,55.124459]}},{"type":"Feature","properties":{"Name":"Craigavon Area Hospital","Location":"Craigavon","Trust":"Southern","Hospital Type":"Acute","Emergency Dept":"Yes","Minor Injuries":"No","Postcode":"BT63 5QQ"},"geometry":{"type":"Point","coordinates":[-6.409063,54.434592]}},{"type":"Feature","properties":{"Name":"Daisy Hill Hospital","Location":"Newry","Trust":"Southern","Hospital Type":"Acute","Emergency Dept":"Yes","Minor Injuries":"No","Postcode":"BT35 8DR"},"geometry":{"type":"Point","coordinates":[-6.352204,54.180972]}},{"type":"Feature","properties":{"Name":"Dalriada Hospital","Location":"Ballycastle","Trust":"Northern","Hospital Type":"Non-acute","Emergency Dept":"No","Minor Injuries":"No","Postcode":"BT54 6EY"},"geometry":{"type":"Point","coordinates":[-6.258863,55.199905]}},{"type":"Feature","properties":{"Name":"Downe Hospital","Location":"Downpatrick","Trust":"South Eastern","Hospital Type":"Acute","Emergency Dept":"Yes","Minor Injuries":"Yes","Postcode":"BT30 6RL"},"geometry":{"type":"Point","coordinates":[-5.68752,54.322955]}},{"type":"Feature","properties":{"Name":"Grangewood Hospital","Location":"Derry","Trust":"Western","Hospital Type":"Acute","Emergency Dept":"No","Minor Injuries":"No","Postcode":"BT47 6TF"},"geometry":{"type":"Point","coordinates":[-7.293278,55.011882]}},{"type":"Feature","properties":{"Name":"Holywell Hospital","Location":"Antrim","Trust":"Northern","Hospital Type":"Acute","Emergency Dept":"No","Minor Injuries":"No","Postcode":"BT41 2RJ"},"geometry":{"type":"Point","coordinates":[-6.199542,54.729418]}},{"type":"Feature","properties":{"Name":"Knockbracken Healthcare Park","Location":"Belfast","Trust":"Belfast","Hospital Type":"Non-acute","Emergency Dept":"No","Minor Injuries":"No","Postcode":"BT8 8BH"},"geometry":{"type":"Point","coordinates":[-5.905633,54.540081]}},{"type":"Feature","properties":{"Name":"Lagan Valley Hospital","Location":"Lisburn","Trust":"South Eastern","Hospital Type":"Acute","Emergency Dept":"Yes","Minor Injuries":"No","Postcode":"BT28 1JP"},"geometry":{"type":"Point","coordinates":[-6.045554,54.505322]}},{"type":"Feature","properties":{"Name":"Lakeview Hospital","Location":"Derry","Trust":"Western","Hospital Type":"Non-acute","Emergency Dept":"No","Minor Injuries":"No","Postcode":"BT47 6WJ"},"geometry":{"type":"Point","coordinates":[-7.293278,55.011882]}},{"type":"Feature","properties":{"Name":"Mater Infirmorum","Location":"Belfast","Trust":"Belfast","Hospital Type":"Acute","Emergency Dept":"Yes","Minor Injuries":"Yes","Postcode":"BT14 6AB"},"geometry":{"type":"Point","coordinates":[-5.939992,54.608912]}},{"type":"Feature","properties":{"Name":"Mid Ulster Hospital","Location":"Magherafelt","Trust":"Northern","Hospital Type":"Acute","Emergency Dept":"No","Minor Injuries":"Yes","Postcode":"BT45 5EX"},"geometry":{"type":"Point","coordinates":[-6.614447,54.761858]}},{"type":"Feature","properties":{"Name":"Moyle Hospital","Location":"Larne","Trust":"Northern","Hospital Type":"Non-acute","Emergency Dept":"No","Minor Injuries":"No","Postcode":"BT40 1RP"},"geometry":{"type":"Point","coordinates":[-5.817171,54.85482]}},{"type":"Feature","properties":{"Name":"Musgrave Park Hospital","Location":"Belfast","Trust":"Belfast","Hospital Type":"Non-acute","Emergency Dept":"No","Minor Injuries":"No","Postcode":"BT9 7JB"},"geometry":{"type":"Point","coordinates":[-5.977276,54.567814]}},{"type":"Feature","properties":{"Name":"Robinson Hospital","Location":"Ballymoney","Trust":"Northern","Hospital Type":"Non-acute","Emergency Dept":"No","Minor Injuries":"No","Postcode":"BT53 6HB"},"geometry":{"type":"Point","coordinates":[-6.506018,55.073021]}},{"type":"Feature","properties":{"Name":"Royal Belfast Hospital for Sick Children","Location":"Belfast","Trust":"Belfast","Hospital Type":"Acute","Emergency Dept":"Yes","Minor Injuries":"Yes","Postcode":"BT12 6BA"},"geometry":{"type":"Point","coordinates":[-5.958083,54.592623]}},{"type":"Feature","properties":{"Name":"Royal Jubilee Maternity Service","Location":"Belfast","Trust":"Belfast","Hospital Type":"Non-acute","Emergency Dept":"No","Minor Injuries":"No","Postcode":"BT12 6BA"},"geometry":{"type":"Point","coordinates":[-5.958083,54.592623]}},{"type":"Feature","properties":{"Name":"Royal Victoria Hospital","Location":"Belfast","Trust":"Belfast","Hospital Type":"Acute","Emergency Dept":"Yes","Minor Injuries":"Yes","Postcode":"BT12 6BA"},"geometry":{"type":"Point","coordinates":[-5.958083,54.592623]}},{"type":"Feature","properties":{"Name":"South Tyrone Hospital","Location":"Dungannon","Trust":"Southern","Hospital Type":"Acute","Emergency Dept":"No","Minor Injuries":"Yes","Postcode":"BT71 4AU"},"geometry":{"type":"Point","coordinates":[-6.770536,54.51028]}},{"type":"Feature","properties":{"Name":"South West Acute Hospital","Location":"Enniskillen","Trust":"Western","Hospital Type":"Acute","Emergency Dept":"Yes","Minor Injuries":"No","Postcode":"BT74 6DN"},"geometry":{"type":"Point","coordinates":[-7.624432,54.354222]}},{"type":"Feature","properties":{"Name":"Tyrone and Fermanagh Hospital","Location":"Omagh","Trust":"Western","Hospital Type":"Acute","Emergency Dept":"No","Minor Injuries":"No","Postcode":"BT79 0NS"},"geometry":{"type":"Point","coordinates":[-7.269841,54.592312]}},{"type":"Feature","properties":{"Name":"Tyrone County Hospital Urgent Care and Treatment Centre","Location":"Omagh","Trust":"Western","Hospital Type":"Acute","Emergency Dept":"No","Minor Injuries":"Yes","Postcode":"BT79 0AP"},"geometry":{"type":"Point","coordinates":[-7.284246,54.601032]}},{"type":"Feature","properties":{"Name":"Ulster Hospital","Location":"Dundonald","Trust":"South Eastern","Hospital Type":"Acute","Emergency Dept":"Yes","Minor Injuries":"No","Postcode":"BT16 1RH"},"geometry":{"type":"Point","coordinates":[-5.811701,54.596985]}},{"type":"Feature","properties":{"Name":"Waterside Hospital","Location":"Derry","Trust":"Western","Hospital Type":"Non-acute","Emergency Dept":"No","Minor Injuries":"No","Postcode":"BT47 6WH"},"geometry":{"type":"Point","coordinates":[-7.293278,55.011882]}},{"type":"Feature","properties":{"Name":"Whiteabbey Hospital","Location":"Whiteabbey","Trust":"Northern","Hospital Type":"Acute","Emergency Dept":"No","Minor Injuries":"Yes","Postcode":"BT37 9RH"},"geometry":{"type":"Point","coordinates":[-5.913143,54.671685]}}]}